NORAD_CAT_ID,OBJECT_NAME,OBJECT_TYPE,EPOCH,MEAN_MOTION,ECCENTRICITY,INCLINATION,RA_OF_ASC_NODE,ARG_OF_PERICENTER,MEAN_ANOMALY,BSTAR,MEAN_MOTION_DOT,MEAN_MOTION_DDOT,TLE_LINE0,TLE_LINE1,TLE_LINE2,SEMIMAJOR_AXIS,PERIOD,APOGEE,PERIGEE,DECAYED
53422.0,STARLINK-4546,PAYLOAD,2023-01-12 02:07:00,15.08848618,0.0002829,53.2149,248.355,28.7539,331.3609,0.00019817,2.868e-05,0.0,0 STARLINK-4546,1 53422U 22097AL  23012.08820238  .00002868  00000-0  19817-3 0  9998,2 53422  53.2149 248.3550 0002829  28.7539 331.3609 15.08848618 24161,6917.854,95.437,541.6759999999998,537.762,0.0
53422.0,STARLINK-4546,PAYLOAD,2023-01-12 08:28:33,15.08827632,0.0002678,53.2139,247.1668,31.3277,328.7874,-0.00020578,-3.561e-05,0.0,0 STARLINK-4546,1 53422U 22097AL  23012.35317110 -.00003561  00000-0 -20578-3 0  9997,2 53422  53.2139 247.1668 0002678  31.3277 328.7874 15.08827632 24200,6917.9180000000015,95.438,541.636,537.931,0.0
53422.0,STARLINK-4546,PAYLOAD,2023-01-13 11:30:08,15.08828486,0.0002577,53.2155,242.1138,41.4695,318.6492,0.00021825,3.186e-05,0.0,0 STARLINK-4546,1 53422U 22097AL  23013.47926167  .00003186  00000-0  21825-3 0  9996,2 53422  53.2155 242.1138 0002577  41.4695 318.6492 15.08828486 24379,6917.916,95.438,541.563,537.998,0.0
53422.0,STARLINK-4546,PAYLOAD,2023-01-13 17:51:40,15.08843832,0.0002453,53.2148,240.9237,38.6467,321.47,-5.817e-05,-1.214e-05,0.0,0 STARLINK-4546,1 53422U 22097AL  23013.74421715 -.00001214  00000-0 -58170-4 0  9991,2 53422  53.2148 240.9237 0002453  38.6467 321.4700 15.08843832 24416,6917.869000000001,95.437,541.431,538.0369999999999,0.0
53422.0,STARLINK-4546,PAYLOAD,2023-01-14 14:31:41,15.08839359,0.0002575,53.2144,237.058,41.7415,318.3773,0.00028699,4.282e-05,0.0,0 STARLINK-4546,1 53422U 22097AL  23014.60534515  .00004282  00000-0  28699-3 0  9998,2 53422  53.2144 237.0580 0002575  41.7415 318.3773 15.08839359 24541,6917.882,95.438,541.529,537.966,0.0
53422.0,STARLINK-4546,PAYLOAD,2023-01-15 08:00:56,15.08840379,0.0002485999999999,53.2138,233.7867,41.8976,318.2206,0.00020011,2.898e-05,0.0,0 STARLINK-4546,1 53422U 22097AL  23015.33398647  .00002898  00000-0  20011-3 0  9994,2 53422  53.2138 233.7867 0002486  41.8976 318.2206 15.08840379 25139,6917.879,95.438,541.464,538.024,0.0
53422.0,STARLINK-4546,PAYLOAD,2023-01-15 20:44:01,15.08847315,0.0002311999999999,53.2156,231.4074,40.502,319.6144,0.00020049,2.905e-05,0.0,0 STARLINK-4546,1 53422U 22097AL  23015.86390359  .00002905  00000-0  20049-3 0  9994,2 53422  53.2156 231.4074 0002312  40.5020 319.6144 15.08847315 24736,6917.858,95.437,541.322,538.124,0.0
53422.0,STARLINK-4546,PAYLOAD,2023-01-15 22:19:24,15.08849773,0.0002318,53.2152,231.1095,42.3269,317.7901,0.0002454,3.621e-05,0.0,0 STARLINK-4546,1 53422U 22097AL  23015.93014254  .00003621  00000-0  24540-3 0  9995,2 53422  53.2152 231.1095 0002318  42.3269 317.7901 15.08849773 25228,6917.851,95.437,541.319,538.112,0.0
53422.0,STARLINK-4546,PAYLOAD,2023-01-16 20:34:48,15.08835662,0.0002229,53.2146,226.9461,49.534,310.5846,5.5294e-05,5.92e-06,0.0,0 STARLINK-4546,1 53422U 22097AL  23016.85751073  .00000592  00000-0  55294-4 0  9999,2 53422  53.2146 226.9461 0002229  49.5340 310.5846 15.08835662 24882,6917.894,95.438,541.3009999999999,538.217,0.0
53422.0,STARLINK-4546,PAYLOAD,2023-01-17 14:04:03,15.08835974,0.0002203,53.2152,223.6753,48.9749,311.1434,4.7606000000000005e-05,4.69e-06,0.0,0 STARLINK-4546,1 53422U 22097AL  23017.58615271  .00000469  00000-0  47606-4 0  9990,2 53422  53.2152 223.6753 0002203  48.9749 311.1434 15.08835974 25477,6917.893,95.438,541.2819999999999,538.234,0.0
53422.0,STARLINK-4546,PAYLOAD,2023-01-17 17:14:49,15.08838378,0.0002215999999999,53.2151,223.0808,49.6468,310.4718,7.7723e-05,9.49e-06,0.0,0 STARLINK-4546,1 53422U 22097AL  23017.71863170  .00000949  00000-0  77723-4 0  9994,2 53422  53.2151 223.0808 0002216  49.6468 310.4718 15.08838378 25491,6917.885,95.438,541.283,538.217,0.0
53422.0,STARLINK-4546,PAYLOAD,2023-01-17 23:36:22,15.08842216,0.0002214,53.2151,221.8912,47.8138,312.3042,7.668800000000001e-05,9.32e-06,0.0,0 STARLINK-4546,1 53422U 22097AL  23017.98358955  .00000932  00000-0  76688-4 0  9994,2 53422  53.2151 221.8912 0002214  47.8138 312.3042 15.08842216 25054,6917.874,95.437,541.27,538.207,0.0
53422.0,STARLINK-4546,PAYLOAD,2023-01-18 09:08:41,15.08835747,0.00022,53.2147,220.1075,50.2202,309.8984,0.00010081,1.316e-05,0.0,0 STARLINK-4546,1 53422U 22097AL  23018.38103437  .00001316  00000-0  10081-3 0  9993,2 53422  53.2147 220.1075 0002200  50.2202 309.8984 15.08835747 25592,6917.893,95.438,541.28,538.236,0.0
53422.0,STARLINK-4546,PAYLOAD,2023-01-18 20:16:23,15.08839798,0.0002065999999999,53.216,218.0254,51.4077,308.71,0.00015283,2.145e-05,0.0,0 STARLINK-4546,1 53422U 22097AL  23018.84471212  .00002145  00000-0  15283-3 0  9993,2 53422  53.2160 218.0254 0002066  51.4077 308.7100 15.08839798 25661,6917.880999999999,95.438,541.175,538.317,0.0
53422.0,STARLINK-4546,PAYLOAD,2023-01-19 05:48:41,15.08840467,0.000212,53.2147,216.242,52.4995,307.619,0.00011202,1.495e-05,0.0,0 STARLINK-4546,1 53422U 22097AL  23019.24215246  .00001495  00000-0  11202-3 0  9995,2 53422  53.2147 216.2420 0002120  52.4995 307.6190 15.08840467 25248,6917.879,95.438,541.211,538.2769999999999,0.0
53422.0,STARLINK-4546,PAYLOAD,2023-01-19 08:59:28,15.08836225,0.0002229,53.2143,215.6468,52.7932,307.3263,0.00011738,1.58e-05,0.0,0 STARLINK-4546,1 53422U 22097AL  23019.37463520  .00001580  00000-0  11738-3 0  9998,2 53422  53.2143 215.6468 0002229  52.7932 307.3263 15.08836225 25743,6917.892,95.438,541.299,538.215,0.0
53422.0,STARLINK-4546,PAYLOAD,2023-01-19 20:07:11,15.08813483,0.0002045999999999,53.2156,213.565,59.4668,300.6525,0.00058186,8.978e-05,0.0,0 STARLINK-4546,1 53422U 22097AL  23019.83832418  .00008978  00000-0  58186-3 0  9991,2 53422  53.2156 213.5650 0002046  59.4668 300.6525 15.08813483 25337,6917.960999999999,95.439,541.242,538.411,0.0
53422.0,STARLINK-4546,PAYLOAD,2023-01-20 07:14:52,15.08840252,0.000205,53.216,211.4837,58.0896,302.0295,0.00013421,1.848e-05,0.0,0 STARLINK-4546,1 53422U 22097AL  23020.30199396  .00001848  00000-0  13421-3 0  9998,2 53422  53.2160 211.4837 0002050  58.0896 302.0295 15.08840252 25401,6917.88,95.438,541.163,538.326,0.0
53422.0,STARLINK-4546,PAYLOAD,2023-01-21 11:51:48,15.08839002,0.0002048,53.216,206.1309,61.6932,298.4267,7.9442e-05,9.76e-06,0.0,0 STARLINK-4546,1 53422U 22097AL  23021.49431479  .00000976  00000-0  79442-4 0  9997,2 53422  53.2160 206.1309 0002048  61.6932 298.4267 15.08839002 25581,6917.883000000001,95.438,541.165,538.332,0.0
53422.0,STARLINK-4546,PAYLOAD,2023-01-22 11:42:35,15.08860692,0.000225,53.2158,201.6704,61.8496,298.2723,-0.00024577,-4.2e-05,0.0,0 STARLINK-4546,1 53422U 22097AL  23022.48790829 -.00004200  00000-0 -24577-3 0  9998,2 53422  53.2158 201.6704 0002250  61.8496 298.2723 15.08860692 25730,6917.816999999999,95.436,541.239,538.126,0.0
53422.0,STARLINK-4546,PAYLOAD,2023-01-23 05:11:49,15.08843438,0.0001961,53.2157,198.3992,64.8626,295.257,3.5441e-05,2.76e-06,0.0,0 STARLINK-4546,1 53422U 22097AL  23023.21655009  .00000276  00000-0  35441-4 0  9990,2 53422  53.2157 198.3992 0001961  64.8626 295.2570 15.08843438 25844,6917.87,95.437,541.091,538.378,0.0
53422.0,STARLINK-4546,PAYLOAD,2023-01-24 11:24:09,15.08840688,0.0002017,53.2158,192.7474,73.8666,286.2548,4.8294e-05,4.8e-06,0.0,0 STARLINK-4546,1 53422U 22097AL  23024.47511150  .00000480  00000-0  48294-4 0  9994,2 53422  53.2158 192.7474 0002017  73.8666 286.2548 15.08840688 26036,6917.878000000001,95.438,541.139,538.3480000000001,0.0
53422.0,STARLINK-4546,PAYLOAD,2023-01-24 17:45:41,15.08845295,0.000197,53.216,191.5583,71.2478,288.8728,8.539200000000001e-05,1.071e-05,0.0,0 STARLINK-4546,1 53422U 22097AL  23024.74006701  .00001071  00000-0  85392-4 0  9992,2 53422  53.2160 191.5583 0001970  71.2478 288.8728 15.08845295 26551,6917.8640000000005,95.437,541.092,538.366,0.0
53422.0,STARLINK-4546,PAYLOAD,2023-01-25 14:25:43,15.08831164,0.0001839,53.2162,187.6935,69.8027,290.3163,-7.1347000000000005e-06,-4.02e-06,0.0,0 STARLINK-4546,1 53422U 22097AL  23025.60119935 -.00000402  00000-0 -71347-5 0  9997,2 53422  53.2162 187.6935 0001839  69.8027 290.3163 15.08831164 26200,6917.906999999999,95.438,541.045,538.5,0.0
53422.0,STARLINK-4546,PAYLOAD,2023-01-25 17:36:29,15.08835542,0.0001847,53.2168,187.0985,67.9517,292.1671,3.4407e-05,2.59e-06,0.0,0 STARLINK-4546,1 53422U 22097AL  23025.73367603  .00000259  00000-0  34407-4 0  9991,2 53422  53.2168 187.0985 0001847  67.9517 292.1671 15.08835542 26700,6917.894,95.438,541.0369999999999,538.481,0.0
53422.0,STARLINK-4546,PAYLOAD,2023-01-26 14:16:30,15.08840503,0.0001797,53.2166,183.2332,70.2846,289.834,1.7811e-05,-5e-08,0.0,0 STARLINK-4546,1 53422U 22097AL  23026.59479512 -.00000005  00000-0  17811-4 0  9999,2 53422  53.2166 183.2332 0001797  70.2846 289.8340 15.08840503 26831,6917.879,95.438,540.987,538.501,0.0
53422.0,STARLINK-4546,PAYLOAD,2023-01-26 15:51:53,15.088413199999998,0.0001804,53.2165,182.9359,70.4492,289.6695,2.6088e-05,1.27e-06,0.0,0 STARLINK-4546,1 53422U 22097AL  23026.66103441  .00000127  00000-0  26088-4 0  9992,2 53422  53.2165 182.9359 0001804  70.4492 289.6695 15.08841320 26360,6917.876,95.437,540.989,538.493,0.0
53422.0,STARLINK-4546,PAYLOAD,2023-01-27 14:07:17,15.08834115,0.0001629999999999,53.2165,178.773,77.8644,282.2531,3.081e-05,2.02e-06,0.0,0 STARLINK-4546,1 53422U 22097AL  23027.58840091  .00000202  00000-0  30810-4 0  9995,2 53422  53.2165 178.7730 0001630  77.8644 282.2531 15.08834115 26501,6917.898,95.438,540.891,538.636,0.0
53422.0,STARLINK-4546,PAYLOAD,2023-01-27 17:18:03,15.0883671,0.000169,53.2167,178.1784,72.4909,287.6268,5.4743e-05,5.83e-06,0.0,0 STARLINK-4546,1 53422U 22097AL  23027.72087952  .00000583  00000-0  54743-4 0  9993,2 53422  53.2167 178.1784 0001690  72.4909 287.6268 15.08836710 27002,6917.89,95.438,540.925,538.586,0.0
